STARLINK-30128          
1 56832U 23079K   26037.00730382  .00000746  00000+0  70279-4 0  9991
2 56832  43.0024 253.5257 0000949 274.1428  85.9306 15.02538604142011
STARLINK-30131          
1 56833U 23079L   26036.92974694  .00002019  00000+0  16446-3 0  9998
2 56833  43.0023 253.9654 0000999 268.4512  91.6216 15.02539950148409
STARLINK-30069          
1 56834U 23079M   26037.01562625 -.00006773  00000+0 -48661-3 0  9994
2 56834  43.0056 279.1445 0001621 260.7492  99.3167 15.02547960148128
STARLINK-30144          
1 56835U 23079N   26037.09540712  .00000453  00000+0  48615-4 0  9993
2 56835  43.0034 278.8919 0001301 264.1173  95.9521 15.02533172148133
STARLINK-30142          
1 56836U 23079P   26037.02559561  .00001444  00000+0  12193-3 0  9991
2 56836  43.0022 279.2287 0000844 280.8413  79.2334 15.02539877148121
STARLINK-30133          
1 56837U 23079Q   26037.02226313  .00001056  00000+0  93209-4 0  9995
2 56837  43.0044 279.1885 0001714 251.5410 108.5246 15.02536159148126
STARLINK-30123          
1 56838U 23079R   26036.96075774  .00002969  00000+0  11736-3 0  9999
2 56838  43.0000 213.1234 0001413 275.2246  84.8444 15.27587036148898
STARLINK-30076          
1 56839U 23079S   26037.08541372  .00001349  00000+0  11493-3 0  9997
2 56839  43.0022 278.8043 0000902 275.4147  84.6592 15.02538604148132
STARLINK-30073          
1 56840U 23079T   26037.16668981  .00083183  00000+0  19818-2 0  9998
2 56840  43.0025 113.1983 0001545 271.3706 317.0218 15.40625495  5981
STARLINK-30078          
1 56841U 23079U   26036.88065154  .00002717  00000+0  10819-3 0  9997
2 56841  43.0026 239.0074 0001488 273.3529  86.7153 15.27584014148581
STARLINK-30135          
1 56842U 23079V   26036.72316056  .00000704  00000+0  67178-4 0  9996
2 56842  43.0028 281.1610 0001054 276.6423  83.4299 15.02545794148070
STARLINK-30137          
1 56843U 23079W   26036.70984579 -.00000636  00000+0 -32006-4 0  9994
2 56843  43.0030 281.0589 0001002 269.5985  90.4742 15.02531915148076
STARLINK-30136          
1 56844U 23079X   26037.06886800  .00000348  00000+0  40865-4 0  9993
2 56844  43.0037 279.4388 0001236 272.4417  87.6284 15.02538033148127
2023-081A               
1 56846U 23081A   26037.19950708  .00009905  00000+0  43706-3 0  9995
2 56846  97.3847 109.7157 0001237  83.4380 276.6997 15.21964284148087
2023-081W               
1 56866U 23081W   26037.22299344  .00014587  00000+0  62027-3 0  9992
2 56866  97.3067 104.2436 0012417 111.8581 248.3978 15.23055387148086
LONGJIANG 3             
1 56874U 23082A   26037.19708264  .00035918  00000+0  99546-3 0  9991
2 56874  49.1108 359.0276 0005873 161.5374 198.5788 15.36522915149185
STARLINK-6206           
1 56876U 23083A   26037.03178529 -.00000758  00000+0 -41042-4 0  9997
2 56876  43.0036 254.1983 0001241 255.5791 104.4914 15.02531004146908
STARLINK-6209           
1 56877U 23083B   26036.95754211  .00001556  00000+0  13022-3 0  9997
2 56877  43.0035 254.4977 0001171 274.3421  85.7288 15.02538445146894
STARLINK-6182           
1 56878U 23083C   26036.96420048 -.00003639  00000+0 -25430-3 0  9999
2 56878  43.0013 254.5513 0001363 267.9346  92.1340 15.02553403146897
STARLINK-5707           
1 56879U 23083D   26036.29609686  .00000500  00000+0  52085-4 0  9992
2 56879  43.0033 258.1387 0001160 266.8186  93.2524 15.02536031146797
STARLINK-6177           
1 56880U 23083E   26036.94422275  .00000920  00000+0  83146-4 0  9991
2 56880  43.0027 254.4015 0001118 277.2610  82.8105 15.02538387146896
STARLINK-5853           
1 56881U 23083F   26037.02511911  .00001813  00000+0  14922-3 0  9995
2 56881  43.0021 254.1459 0000972 273.7314  86.3417 15.02545460146906
STARLINK-6175           
1 56882U 23083G   26037.01181200  .00000385  00000+0  43608-4 0  9996
2 56882  43.0035 254.0428 0001311 254.7820 105.2878 15.02534720146905
STARLINK-6171           
1 56883U 23083H   26036.95534380  .00021804  00000+0  16291-2 0  9995
2 56883  42.9998 254.4870 0000288 293.2925  66.7887 15.02421743146892
STARLINK-5515           
1 56884U 23083J   26036.93866552 -.00003003  00000+0 -20728-3 0  9997
2 56884  43.0069 254.3484 0001985 259.0999 100.9620 15.02543605146898
STARLINK-5095           
1 56885U 23083K   26036.95198962  .00001559  00000+0  13045-3 0  9999
2 56885  43.0027 254.4550 0001313 271.3979  88.6713 15.02539110146899
STARLINK-5496           
1 56886U 23083L   26037.00404225  .00000493  00000+0  51534-4 0  9991
2 56886  43.0017 253.9868 0001498 270.4294  89.6377 15.02545612146902
STARLINK-6180           
1 56887U 23083M   26036.94200403  .00001630  00000+0  13569-3 0  9995
2 56887  43.0028 254.3772 0001291 268.8814  91.1881 15.02538394146899
STARLINK-6181           
1 56888U 23083N   26036.99072668  .00000776  00000+0  72542-4 0  9998
2 56888  43.0017 253.8859 0001296 267.7788  92.2906 15.02525741146905
STARLINK-6169           
1 56889U 23083P   26037.00071530  .00000312  00000+0  38137-4 0  9997
2 56889  43.0022 253.9593 0001035 267.0387  93.0337 15.02536807146909
STARLINK-5528           
1 56890U 23083Q   26036.99183562 -.00000868  00000+0 -49221-4 0  9999
2 56890  43.0017 253.8947 0001136 267.8863  92.1850 15.02536026146909
STARLINK-6213           
1 56891U 23083R   26036.93089728  .00001101  00000+0  96529-4 0  9995
2 56891  43.0019 254.2941 0001071 276.6358  83.4363 15.02537546146894
STARLINK-6219           
1 56892U 23083S   26036.91759350  .00000992  00000+0  88521-4 0  9999
2 56892  43.0028 254.1944 0001125 249.3677 110.7045 15.02524156146892
STARLINK-6216           
1 56893U 23083T   26036.92757487  .00001072  00000+0  94427-4 0  9992
2 56893  43.0026 254.2724 0001248 265.3302  94.7397 15.02535819147011
STARLINK-6144           
1 56894U 23083U   26036.91869748  .00002235  00000+0  18043-3 0  9997
2 56894  43.0023 254.2050 0001210 272.8296  87.2407 15.02537209147019
STARLINK-6208           
1 56895U 23083V   26036.98184291  .00001258  00000+0  10815-3 0  9991
2 56895  43.0020 253.8202 0001211 267.5618  92.5085 15.02537036146907
STARLINK-6202           
1 56896U 23083W   26036.91093071 -.00004528  00000+0 -32025-3 0  9992
2 56896  43.0021 254.1447 0000775 269.6335  90.4418 15.02545091147006
STARLINK-6200           
1 56897U 23083X   26036.98073332  .00000935  00000+0  84283-4 0  9998
2 56897  43.0030 253.8038 0001146 271.0436  89.0275 15.02535980147024
STARLINK-6205           
1 56898U 23083Y   26036.90426583  .00001088  00000+0  95564-4 0  9995
2 56898  43.0018 254.0961 0001185 270.7346  89.3360 15.02536792147006
STARLINK-6203           
1 56899U 23083Z   26036.97407129  .00001109  00000+0  97146-4 0  9990
2 56899  43.0026 253.7561 0001137 267.8923  92.1789 15.02539231147012
STARLINK-6207           
1 56900U 23083AA  26036.97444806  .00000569  00000+0  57208-4 0  9990
2 56900  43.0014 241.6261 0001134 270.3423  89.7290 15.02538782147015
STARLINK-6185           
1 56901U 23083AB  26036.90204917  .00002228  00000+0  17997-3 0  9995
2 56901  43.0018 254.0791 0001133 264.8279  95.2434 15.02534648147000
STARLINK-6195           
1 56902U 23083AC  26036.90464248  .00000089  00000+0  21625-4 0  9998
2 56902  43.0025 241.9602 0001120 264.6341  95.4374 15.02536145147143
STARLINK-6192           
1 56903U 23083AD  26036.63946785 -.00000088  00000+0  85679-5 0  9990
2 56903  43.0038 255.5466 0001200 262.4899  97.5807 15.02535758146962
STARLINK-6193           
1 56904U 23083AE  26036.94781314  .00000232  00000+0  32288-4 0  9997
2 56904  43.0030 241.4216 0001588 261.6229  98.4433 15.02533838147041
STARLINK-6183           
1 56905U 23083AF  26036.63540263  .00000766  00000+0  71746-4 0  9994
2 56905  43.0022 243.3819 0001527 250.6325 109.4352 15.02546346146995
STARLINK-6098           
1 56906U 23083AG  26036.96446558 -.00000200  00000+0  28041-6 0  9999
2 56906  43.0049 241.5505 0001092 266.8908  93.1810 15.02529837147041
STARLINK-6110           
1 56907U 23083AH  26036.89909369  .00001711  00000+0  14168-3 0  9995
2 56907  43.0029 241.9176 0001479 271.9997  88.0676 15.02540616147144
STARLINK-6186           
1 56908U 23083AJ  26036.95446990  .00000740  00000+0  69879-4 0  9990
2 56908  43.0031 241.4712 0001234 269.0941  90.9760 15.02536525147044
STARLINK-5999           
1 56909U 23083AK  26036.63650905  .00000229  00000+0  31992-4 0  9996
2 56909  43.0020 243.3890 0001292 264.2827  95.7868 15.02535135147100
STARLINK-6179           
1 56910U 23083AL  26036.94892264  .00001066  00000+0  93997-4 0  9991
2 56910  43.0020 241.4304 0001236 262.7799  97.2903 15.02534544147043
STARLINK-6116           
1 56911U 23083AM  26036.89466222  .00002931  00000+0  23198-3 0  9994
2 56911  43.0040 241.8842 0001390 280.8350  79.2336 15.02533353147038
STARLINK-5805           
1 56912U 23083AN  26036.94446304  .00002482  00000+0  19869-3 0  9991
2 56912  43.0022 241.3952 0001069 275.7606  84.3114 15.02551405147046
STARLINK-5950           
1 56913U 23083AP  26036.95780211  .00001188  00000+0  10299-3 0  9991
2 56913  43.0019 241.4981 0001192 264.7506  95.3200 15.02526933147046
STARLINK-5961           
1 56914U 23083AQ  26036.87134337  .00000162  00000+0  27082-4 0  9995
2 56914  43.0009 241.7081 0001280 278.1115  81.9582 15.02535104147036
STARLINK-5965           
1 56915U 23083AR  26036.95114252 -.00000267  00000+0 -46923-5 0  9993
2 56915  43.0014 241.4478 0001134 271.1869  88.8844 15.02532995147040
STARLINK-5973           
1 56916U 23083AS  26036.98763630  .00022163  00000+0  16540-2 0  9993
2 56916  43.0018 240.8612 0001000 233.4421 126.6330 15.02456555147021
STARLINK-5971           
1 56917U 23083AT  26036.94115661  .00000418  00000+0  46004-4 0  9994
2 56917  43.0044 241.3664 0001119 267.5854  92.4860 15.02532680147047
STARLINK-5951           
1 56918U 23083AU  26036.99764289  .00002930  00000+0  23188-3 0  9994
2 56918  43.0015 240.9300 0001711 267.1132  92.9514 15.02538760147058
